ORBCOMM FM103           
1 40091U 14040F   24247.54400796  .00002591  00000+0  60777-3 0  9993
2 40091  47.0046 290.4693 0001601   8.4396 351.6516 14.56985499522284
ORBCOMM FM114           
1 41179U 15081A   24247.57332469  .00003323  00000+0  76838-3 0  9990
2 41179  47.0011 199.5333 0001257  92.4745 267.6284 14.57024707462651
ORBCOMM FM119           
1 41180U 15081B   24247.89199647  .00003274  00000+0  75844-3 0  9997
2 41180  46.9995 107.2627 0001522 197.3416 162.7417 14.56967835463953
ORBCOMM FM105           
1 41181U 15081C   24247.81929574  .00001499  00000+0  47442-3 0  9990
2 41181  47.0017  85.2310 0001398 130.4735 229.6267 14.44598128459333
ORBCOMM FM110           
1 41182U 15081D   24247.89254197  .00003894  00000+0  89278-3 0  9995
2 41182  47.0000 197.4168 0002420 297.0751  62.9886 14.57085306462576
ORBCOMM FM118           
1 41183U 15081E   24247.87055051  .00003512  00000+0  80935-3 0  9990
2 41183  47.0025 197.8579 0002713 291.9939  68.0657 14.57060684462676
ORBCOMM FM112           
1 41184U 15081F   24247.32047513  .00003318  00000+0  76807-3 0  9992
2 41184  46.9976 109.1545 0001655 163.7475 196.3463 14.56969527463814
ORBCOMM FM113           
1 41185U 15081G   24247.70900141  .00003954  00000+0  90788-3 0  9990
2 41185  46.9993 107.6066 0001505 185.6131 174.4738 14.56980562463859
