<?xml version="1.0" encoding="UTF-8"?>
<ndm xmlns:xsi="http://www.w3.org/2001/XMLSchema-instance" xsi:noNamespaceSchemaLocation="https://sanaregistry.org/r/ndmxml_unqualified/ndmxml-2.0.0-master-2.0.xsd">
<omm id="CCSDS_OMM_VERS" version="2.0">
<header><CREATION_DATE/><ORIGINATOR/></header><body><segment><metadata><OBJECT_NAME>ORBCOMM FM103</OBJECT_NAME><OBJECT_ID>2014-040F</OBJECT_ID><CENTER_NAME>EARTH</CENTER_NAME><REF_FRAME>TEME</REF_FRAME><TIME_SYSTEM>UTC</TIME_SYSTEM><MEAN_ELEMENT_THEORY>SGP4</MEAN_ELEMENT_THEORY></metadata><data><meanElements><EPOCH>2024-09-03T13:03:22.287744</EPOCH><MEAN_MOTION>14.56985499</MEAN_MOTION><ECCENTRICITY>.0001601</ECCENTRICITY><INCLINATION>47.0046</INCLINATION><RA_OF_ASC_NODE>290.4693</RA_OF_ASC_NODE><ARG_OF_PERICENTER>8.4396</ARG_OF_PERICENTER><MEAN_ANOMALY>351.6516</MEAN_ANOMALY></meanElements><tleParameters><EPHEMERIS_TYPE>0</EPHEMERIS_TYPE><CLASSIFICATION_TYPE>U</CLASSIFICATION_TYPE><NORAD_CAT_ID>40091</NORAD_CAT_ID><ELEMENT_SET_NO>999</ELEMENT_SET_NO><REV_AT_EPOCH>52228</REV_AT_EPOCH><BSTAR>.60777E-3</BSTAR><MEAN_MOTION_DOT>.2591E-4</MEAN_MOTION_DOT><MEAN_MOTION_DDOT>0</MEAN_MOTION_DDOT></tleParameters></data></segment></body></omm>
<omm id="CCSDS_OMM_VERS" version="2.0">
<header><CREATION_DATE/><ORIGINATOR/></header><body><segment><metadata><OBJECT_NAME>ORBCOMM FM114</OBJECT_NAME><OBJECT_ID>2015-081A</OBJECT_ID><CENTER_NAME>EARTH</CENTER_NAME><REF_FRAME>TEME</REF_FRAME><TIME_SYSTEM>UTC</TIME_SYSTEM><MEAN_ELEMENT_THEORY>SGP4</MEAN_ELEMENT_THEORY></metadata><data><meanElements><EPOCH>2024-09-03T13:45:35.253216</EPOCH><MEAN_MOTION>14.57024707</MEAN_MOTION><ECCENTRICITY>.0001257</ECCENTRICITY><INCLINATION>47.0011</INCLINATION><RA_OF_ASC_NODE>199.5333</RA_OF_ASC_NODE><ARG_OF_PERICENTER>92.4745</ARG_OF_PERICENTER><MEAN_ANOMALY>267.6284</MEAN_ANOMALY></meanElements><tleParameters><EPHEMERIS_TYPE>0</EPHEMERIS_TYPE><CLASSIFICATION_TYPE>U</CLASSIFICATION_TYPE><NORAD_CAT_ID>41179</NORAD_CAT_ID><ELEMENT_SET_NO>999</ELEMENT_SET_NO><REV_AT_EPOCH>46265</REV_AT_EPOCH><BSTAR>.76838E-3</BSTAR><MEAN_MOTION_DOT>.3323E-4</MEAN_MOTION_DOT><MEAN_MOTION_DDOT>0</MEAN_MOTION_DDOT></tleParameters></data></segment></body></omm>
<omm id="CCSDS_OMM_VERS" version="2.0">
<header><CREATION_DATE/><ORIGINATOR/></header><body><segment><metadata><OBJECT_NAME>ORBCOMM FM119</OBJECT_NAME><OBJECT_ID>2015-081B</OBJECT_ID><CENTER_NAME>EARTH</CENTER_NAME><REF_FRAME>TEME</REF_FRAME><TIME_SYSTEM>UTC</TIME_SYSTEM><MEAN_ELEMENT_THEORY>SGP4</MEAN_ELEMENT_THEORY></metadata><data><meanElements><EPOCH>2024-09-03T21:24:28.495008</EPOCH><MEAN_MOTION>14.56967835</MEAN_MOTION><ECCENTRICITY>.0001522</ECCENTRICITY><INCLINATION>46.9995</INCLINATION><RA_OF_ASC_NODE>107.2627</RA_OF_ASC_NODE><ARG_OF_PERICENTER>197.3416</ARG_OF_PERICENTER><MEAN_ANOMALY>162.7417</MEAN_ANOMALY></meanElements><tleParameters><EPHEMERIS_TYPE>0</EPHEMERIS_TYPE><CLASSIFICATION_TYPE>U</CLASSIFICATION_TYPE><NORAD_CAT_ID>41180</NORAD_CAT_ID><ELEMENT_SET_NO>999</ELEMENT_SET_NO><REV_AT_EPOCH>46395</REV_AT_EPOCH><BSTAR>.75844E-3</BSTAR><MEAN_MOTION_DOT>.3274E-4</MEAN_MOTION_DOT><MEAN_MOTION_DDOT>0</MEAN_MOTION_DDOT></tleParameters></data></segment></body></omm>
<omm id="CCSDS_OMM_VERS" version="2.0">
<header><CREATION_DATE/><ORIGINATOR/></header><body><segment><metadata><OBJECT_NAME>ORBCOMM FM105</OBJECT_NAME><OBJECT_ID>2015-081C</OBJECT_ID><CENTER_NAME>EARTH</CENTER_NAME><REF_FRAME>TEME</REF_FRAME><TIME_SYSTEM>UTC</TIME_SYSTEM><MEAN_ELEMENT_THEORY>SGP4</MEAN_ELEMENT_THEORY></metadata><data><meanElements><EPOCH>2024-09-03T19:39:47.151936</EPOCH><MEAN_MOTION>14.44598128</MEAN_MOTION><ECCENTRICITY>.0001398</ECCENTRICITY><INCLINATION>47.0017</INCLINATION><RA_OF_ASC_NODE>85.2310</RA_OF_ASC_NODE><ARG_OF_PERICENTER>130.4735</ARG_OF_PERICENTER><MEAN_ANOMALY>229.6267</MEAN_ANOMALY></meanElements><tleParameters><EPHEMERIS_TYPE>0</EPHEMERIS_TYPE><CLASSIFICATION_TYPE>U</CLASSIFICATION_TYPE><NORAD_CAT_ID>41181</NORAD_CAT_ID><ELEMENT_SET_NO>999</ELEMENT_SET_NO><REV_AT_EPOCH>45933</REV_AT_EPOCH><BSTAR>.47442E-3</BSTAR><MEAN_MOTION_DOT>.1499E-4</MEAN_MOTION_DOT><MEAN_MOTION_DDOT>0</MEAN_MOTION_DDOT></tleParameters></data></segment></body></omm>
<omm id="CCSDS_OMM_VERS" version="2.0">
<header><CREATION_DATE/><ORIGINATOR/></header><body><segment><metadata><OBJECT_NAME>ORBCOMM FM110</OBJECT_NAME><OBJECT_ID>2015-081D</OBJECT_ID><CENTER_NAME>EARTH</CENTER_NAME><REF_FRAME>TEME</REF_FRAME><TIME_SYSTEM>UTC</TIME_SYSTEM><MEAN_ELEMENT_THEORY>SGP4</MEAN_ELEMENT_THEORY></metadata><data><meanElements><EPOCH>2024-09-03T21:25:15.626208</EPOCH><MEAN_MOTION>14.57085306</MEAN_MOTION><ECCENTRICITY>.000242</ECCENTRICITY><INCLINATION>47.0000</INCLINATION><RA_OF_ASC_NODE>197.4168</RA_OF_ASC_NODE><ARG_OF_PERICENTER>297.0751</ARG_OF_PERICENTER><MEAN_ANOMALY>62.9886</MEAN_ANOMALY></meanElements><tleParameters><EPHEMERIS_TYPE>0</EPHEMERIS_TYPE><CLASSIFICATION_TYPE>U</CLASSIFICATION_TYPE><NORAD_CAT_ID>41182</NORAD_CAT_ID><ELEMENT_SET_NO>999</ELEMENT_SET_NO><REV_AT_EPOCH>46257</REV_AT_EPOCH><BSTAR>.89278E-3</BSTAR><MEAN_MOTION_DOT>.3894E-4</MEAN_MOTION_DOT><MEAN_MOTION_DDOT>0</MEAN_MOTION_DDOT></tleParameters></data></segment></body></omm>
<omm id="CCSDS_OMM_VERS" version="2.0">
<header><CREATION_DATE/><ORIGINATOR/></header><body><segment><metadata><OBJECT_NAME>ORBCOMM FM118</OBJECT_NAME><OBJECT_ID>2015-081E</OBJECT_ID><CENTER_NAME>EARTH</CENTER_NAME><REF_FRAME>TEME</REF_FRAME><TIME_SYSTEM>UTC</TIME_SYSTEM><MEAN_ELEMENT_THEORY>SGP4</MEAN_ELEMENT_THEORY></metadata><data><meanElements><EPOCH>2024-09-03T20:53:35.564064</EPOCH><MEAN_MOTION>14.57060684</MEAN_MOTION><ECCENTRICITY>.0002713</ECCENTRICITY><INCLINATION>47.0025</INCLINATION><RA_OF_ASC_NODE>197.8579</RA_OF_ASC_NODE><ARG_OF_PERICENTER>291.9939</ARG_OF_PERICENTER><MEAN_ANOMALY>68.0657</MEAN_ANOMALY></meanElements><tleParameters><EPHEMERIS_TYPE>0</EPHEMERIS_TYPE><CLASSIFICATION_TYPE>U</CLASSIFICATION_TYPE><NORAD_CAT_ID>41183</NORAD_CAT_ID><ELEMENT_SET_NO>999</ELEMENT_SET_NO><REV_AT_EPOCH>46267</REV_AT_EPOCH><BSTAR>.80935E-3</BSTAR><MEAN_MOTION_DOT>.3512E-4</MEAN_MOTION_DOT><MEAN_MOTION_DDOT>0</MEAN_MOTION_DDOT></tleParameters></data></segment></body></omm>
<omm id="CCSDS_OMM_VERS" version="2.0">
<header><CREATION_DATE/><ORIGINATOR/></header><body><segment><metadata><OBJECT_NAME>ORBCOMM FM112</OBJECT_NAME><OBJECT_ID>2015-081F</OBJECT_ID><CENTER_NAME>EARTH</CENTER_NAME><REF_FRAME>TEME</REF_FRAME><TIME_SYSTEM>UTC</TIME_SYSTEM><MEAN_ELEMENT_THEORY>SGP4</MEAN_ELEMENT_THEORY></metadata><data><meanElements><EPOCH>2024-09-03T07:41:29.051232</EPOCH><MEAN_MOTION>14.56969527</MEAN_MOTION><ECCENTRICITY>.0001655</ECCENTRICITY><INCLINATION>46.9976</INCLINATION><RA_OF_ASC_NODE>109.1545</RA_OF_ASC_NODE><ARG_OF_PERICENTER>163.7475</ARG_OF_PERICENTER><MEAN_ANOMALY>196.3463</MEAN_ANOMALY></meanElements><tleParameters><EPHEMERIS_TYPE>0</EPHEMERIS_TYPE><CLASSIFICATION_TYPE>U</CLASSIFICATION_TYPE><NORAD_CAT_ID>41184</NORAD_CAT_ID><ELEMENT_SET_NO>999</ELEMENT_SET_NO><REV_AT_EPOCH>46381</REV_AT_EPOCH><BSTAR>.76807E-3</BSTAR><MEAN_MOTION_DOT>.3318E-4</MEAN_MOTION_DOT><MEAN_MOTION_DDOT>0</MEAN_MOTION_DDOT></tleParameters></data></segment></body></omm>
<omm id="CCSDS_OMM_VERS" version="2.0">
<header><CREATION_DATE/><ORIGINATOR/></header><body><segment><metadata><OBJECT_NAME>ORBCOMM FM113</OBJECT_NAME><OBJECT_ID>2015-081G</OBJECT_ID><CENTER_NAME>EARTH</CENTER_NAME><REF_FRAME>TEME</REF_FRAME><TIME_SYSTEM>UTC</TIME_SYSTEM><MEAN_ELEMENT_THEORY>SGP4</MEAN_ELEMENT_THEORY></metadata><data><meanElements><EPOCH>2024-09-03T17:00:57.721824</EPOCH><MEAN_MOTION>14.56980562</MEAN_MOTION><ECCENTRICITY>.0001505</ECCENTRICITY><INCLINATION>46.9993</INCLINATION><RA_OF_ASC_NODE>107.6066</RA_OF_ASC_NODE><ARG_OF_PERICENTER>185.6131</ARG_OF_PERICENTER><MEAN_ANOMALY>174.4738</MEAN_ANOMALY></meanElements><tleParameters><EPHEMERIS_TYPE>0</EPHEMERIS_TYPE><CLASSIFICATION_TYPE>U</CLASSIFICATION_TYPE><NORAD_CAT_ID>41185</NORAD_CAT_ID><ELEMENT_SET_NO>999</ELEMENT_SET_NO><REV_AT_EPOCH>46385</REV_AT_EPOCH><BSTAR>.90788E-3</BSTAR><MEAN_MOTION_DOT>.3954E-4</MEAN_MOTION_DOT><MEAN_MOTION_DDOT>0</MEAN_MOTION_DDOT></tleParameters></data></segment></body></omm>

</ndm>
